OBJECT C                
1 57582U 23117C   24280.17337653  .00019811  00000+0  94993-3 0  9998
2 57582  97.4756 350.8596 0008884 265.8761  94.1458 15.18904479 64016
